{
  "type": "FeatureCollection",
  "features": [
    {
      "type": "Feature",
      "properties": {
        "norad_id": 31307,
        "name": "GALAXY 17 (G-17)",
        "group": "intelsat",
        "lat": -2.0563346791867487,
        "lon": -43.99592941553901,
        "alt_km": 35776.67089848644,
        "timestamp": "2025-12-21T20:41:07.652850+00:00",
        "meta_object_name": "GALAXY 17 (G-17)",
        "meta_object_id": "2007-016B",
        "meta_epoch": "2025-12-21T12:03:49.880160",
        "meta_mean_motion": 1.00270125,
        "meta_eccentricity": 0.00053417,
        "meta_inclination": 2.5205,
        "meta_ra_of_asc_node": 82.1873,
        "meta_arg_of_pericenter": 170.3583,
        "meta_mean_anomaly": 293.758,
        "meta_ephemeris_type": 0,
        "meta_classification_type": "U",
        "meta_norad_cat_id": 31307,
        "meta_element_set_no": 999,
        "meta_rev_at_epoch": 6802,
        "meta_bstar": 0,
        "meta_mean_motion_dot": -1.85e-06,
        "meta_mean_motion_ddot": 0,
        "tle_line1": "1 31307U 07016B   25355.50266065 -.00000185  00000+0  00000+0 0  9991",
        "tle_line2": "2 31307   2.5205  82.1873 0005341 170.3583 293.7580  1.00270125 68027"
      },
      "geometry": {
        "type": "Point",
        "coordinates": [
          -43.99592941553901,
          -2.0563346791867487
        ]
      }
    },
    {
      "type": "Feature",
      "properties": {
        "norad_id": 31862,
        "name": "DIRECTV 10",
        "group": "intelsat",
        "lat": -0.0007129239182919222,
        "lon": -61.85623939535285,
        "alt_km": 35786.83268685139,
        "timestamp": "2025-12-21T20:41:07.652861+00:00",
        "meta_object_name": "DIRECTV 10",
        "meta_object_id": "2007-032A",
        "meta_epoch": "2025-12-20T21:18:05.647104",
        "meta_mean_motion": 1.00270377,
        "meta_eccentricity": 2.73e-05,
        "meta_inclination": 0.0073,
        "meta_ra_of_asc_node": 111.6707,
        "meta_arg_of_pericenter": 78.7977,
        "meta_mean_anomaly": 115.9664,
        "meta_ephemeris_type": 0,
        "meta_classification_type": "U",
        "meta_norad_cat_id": 31862,
        "meta_element_set_no": 999,
        "meta_rev_at_epoch": 4380,
        "meta_bstar": 0,
        "meta_mean_motion_dot": -8e-07,
        "meta_mean_motion_ddot": 0,
        "tle_line1": "1 31862U 07032A   25354.88756536 -.00000080  00000+0  00000+0 0  9996",
        "tle_line2": "2 31862   0.0073 111.6707 0000273  78.7977 115.9664  1.00270377 43806"
      },
      "geometry": {
        "type": "Point",
        "coordinates": [
          -61.85623939535285,
          -0.0007129239182919222
        ]
      }
    },
    {
      "type": "Feature",
      "properties": {
        "norad_id": 32253,
        "name": "INTELSAT 11 (IS-11)",
        "group": "intelsat",
        "lat": 1.7356240947561954,
        "lon": -133.47097378922646,
        "alt_km": 36097.84827448465,
        "timestamp": "2025-12-21T20:41:07.652872+00:00",
        "meta_object_name": "INTELSAT 11 (IS-11)",
        "meta_object_id": "2007-044B",
        "meta_epoch": "2025-12-21T12:13:38.810208",
        "meta_mean_motion": 0.99052571,
        "meta_eccentricity": 0.00085338,
        "meta_inclination": 3.1016,
        "meta_ra_of_asc_node": 80.8798,
        "meta_arg_of_pericenter": 169.3965,
        "meta_mean_anomaly": 210.5858,
        "meta_ephemeris_type": 0,
        "meta_classification_type": "U",
        "meta_norad_cat_id": 32253,
        "meta_element_set_no": 999,
        "meta_rev_at_epoch": 6669,
        "meta_bstar": 0,
        "meta_mean_motion_dot": -9.1e-07,
        "meta_mean_motion_ddot": 0,
        "tle_line1": "1 32253U 07044B   25355.50947697 -.00000091  00000+0  00000+0 0  9996",
        "tle_line2": "2 32253   3.1016  80.8798 0008533 169.3965 210.5858  0.99052571 66690"
      },
      "geometry": {
        "type": "Point",
        "coordinates": [
          -133.47097378922646,
          1.7356240947561954
        ]
      }
    },
    {
      "type": "Feature",
      "properties": {
        "norad_id": 32388,
        "name": "HORIZONS-2",
        "group": "intelsat",
        "lat": -1.9493203143135833,
        "lon": -32.80668913298584,
        "alt_km": 35773.91807473709,
        "timestamp": "2025-12-21T20:41:07.652883+00:00",
        "meta_object_name": "HORIZONS-2",
        "meta_object_id": "2007-063B",
        "meta_epoch": "2025-12-21T13:04:20.930880",
        "meta_mean_motion": 1.00271247,
        "meta_eccentricity": 0.00046131,
        "meta_inclination": 2.1431,
        "meta_ra_of_asc_node": 82.8666,
        "meta_arg_of_pericenter": 194.5159,
        "meta_mean_anomaly": 295.2836,
        "meta_ephemeris_type": 0,
        "meta_classification_type": "U",
        "meta_norad_cat_id": 32388,
        "meta_element_set_no": 999,
        "meta_rev_at_epoch": 6603,
        "meta_bstar": 0,
        "meta_mean_motion_dot": -2.32e-06,
        "meta_mean_motion_ddot": 0,
        "tle_line1": "1 32388U 07063B   25355.54468670 -.00000232  00000+0  00000+0 0  9996",
        "tle_line2": "2 32388   2.1431  82.8666 0004613 194.5159 295.2836  1.00271247 66035"
      },
      "geometry": {
        "type": "Point",
        "coordinates": [
          -32.80668913298584,
          -1.9493203143135833
        ]
      }
    },
    {
      "type": "Feature",
      "properties": {
        "norad_id": 32729,
        "name": "DIRECTV 11",
        "group": "intelsat",
        "lat": -0.014908109777979838,
        "lon": -58.24255096414205,
        "alt_km": 35787.89921654933,
        "timestamp": "2025-12-21T20:41:07.652893+00:00",
        "meta_object_name": "DIRECTV 11",
        "meta_object_id": "2008-013A",
        "meta_epoch": "2025-12-21T08:20:59.119872",
        "meta_mean_motion": 1.00270364,
        "meta_eccentricity": 4.543e-05,
        "meta_inclination": 0.0491,
        "meta_ra_of_asc_node": 186.3894,
        "meta_arg_of_pericenter": 338.0955,
        "meta_mean_anomaly": 311.7374,
        "meta_ephemeris_type": 0,
        "meta_classification_type": "U",
        "meta_norad_cat_id": 32729,
        "meta_element_set_no": 999,
        "meta_rev_at_epoch": 4381,
        "meta_bstar": 0,
        "meta_mean_motion_dot": -1.03e-06,
        "meta_mean_motion_ddot": 0,
        "tle_line1": "1 32729U 08013A   25355.34790648 -.00000103  00000+0  00000+0 0  9999",
        "tle_line2": "2 32729   0.0491 186.3894 0000454 338.0955 311.7374  1.00270364 43819"
      },
      "geometry": {
        "type": "Point",
        "coordinates": [
          -58.24255096414205,
          -0.014908109777979838
        ]
      }
    },
    {
      "type": "Feature",
      "properties": {
        "norad_id": 32951,
        "name": "GALAXY 18 (G-18)",
        "group": "intelsat",
        "lat": -0.029342178933179752,
        "lon": -82.06166822256857,
        "alt_km": 35774.16510786379,
        "timestamp": "2025-12-21T20:41:07.652904+00:00",
        "meta_object_name": "GALAXY 18 (G-18)",
        "meta_object_id": "2008-024A",
        "meta_epoch": "2025-12-21T08:40:28.062624",
        "meta_mean_motion": 1.00271198,
        "meta_eccentricity": 0.00028473,
        "meta_inclination": 0.0183,
        "meta_ra_of_asc_node": 61.6385,
        "meta_arg_of_pericenter": 214.0045,
        "meta_mean_anomaly": 181.6446,
        "meta_ephemeris_type": 0,
        "meta_classification_type": "U",
        "meta_norad_cat_id": 32951,
        "meta_element_set_no": 999,
        "meta_rev_at_epoch": 4407,
        "meta_bstar": 0,
        "meta_mean_motion_dot": 4.8e-07,
        "meta_mean_motion_ddot": 0,
        "tle_line1": "1 32951U 08024A   25355.36143591  .00000048  00000+0  00000+0 0  9996",
        "tle_line2": "2 32951   0.0183  61.6385 0002847 214.0045 181.6446  1.00271198 44074"
      },
      "geometry": {
        "type": "Point",
        "coordinates": [
          -82.06166822256857,
          -0.029342178933179752
        ]
      }
    },
    {
      "type": "Feature",
      "properties": {
        "norad_id": 33153,
        "name": "INTELSAT 25 (IS-25)",
        "group": "intelsat",
        "lat": -2.1511793469272513,
        "lon": 9.498819762854335,
        "alt_km": 35789.96571126931,
        "timestamp": "2025-12-21T20:41:07.652915+00:00",
        "meta_object_name": "INTELSAT 25 (IS-25)",
        "meta_object_id": "2008-034A",
        "meta_epoch": "2025-12-21T07:15:38.695680",
        "meta_mean_motion": 1.00269773,
        "meta_eccentricity": 0.00048191,
        "meta_inclination": 2.2484,
        "meta_ra_of_asc_node": 82.5583,
        "meta_arg_of_pericenter": 188.4629,
        "meta_mean_anomaly": 256.4971,
        "meta_ephemeris_type": 0,
        "meta_classification_type": "U",
        "meta_norad_cat_id": 33153,
        "meta_element_set_no": 999,
        "meta_rev_at_epoch": 6391,
        "meta_bstar": 0,
        "meta_mean_motion_dot": -2.03e-06,
        "meta_mean_motion_ddot": 0,
        "tle_line1": "1 33153U 08034A   25355.30253120 -.00000203  00000+0  00000+0 0  9990",
        "tle_line2": "2 33153   2.2484  82.5583 0004819 188.4629 256.4971  1.00269773 63916"
      },
      "geometry": {
        "type": "Point",
        "coordinates": [
          9.498819762854335,
          -2.1511793469272513
        ]
      }
    }
  ]
}